{"type":"FeatureCollection","features":[{"type":"Feature","id":"national-02","properties":{"kind":"national","fips":"02"},"geometry":{"type":"LineString","coordinates":[[-141.000591,69.646614],[-141.000592,69.645893],[-141.000592,69.645826],[-141.000594,69.641285],[-141.000594,69.637897],[-141.000596,69.629967],[-141.000598,69.622037],[-141.0006,69.618229],[-141.000601,69.61704],[-141.000601,69.614107],[-141.000602,69.610501],[-141.000603,69.606177],[-141.000605,69.598247],[-141.000607,69.590317],[-141.00061,69.5819],[-141.000612,69.573482],[-141.000615,69.565064],[-141.000616,69.563182],[-141.000618,69.555453],[-141.000619,69.552778],[-141.00062,69.5504],[-141.00062,69.548467],[-141.000627,69.525579],[-141.000628,69.52112],[-141.000632,69.509081],[-141.000639,69.485004],[-141.000643,69.470141],[-141.000651,69.444577],[-141.00066,69.411136],[-141.000665,69.396125],[-141.000673,69.368327],[-141.000673,69.367881],[-141.000673,69.367073],[-141.000673,69.366924],[-141.000673,69.36658],[-141.000673,69.365847],[-141.000679,69.347226],[-141.000696,69.286438],[-141.000713,69.227581],[-141.000715,69.222082],[-141.000716,69.218627],[-141.000718,69.211976],[-141.000723,69.193397],[-141.000725,69.187638],[-141.000725,69.187155],[-141.000726,69.183142],[-141.000731,69.168038],[-141.000731,69.165957],[-141.000747,69.11075],[-141.000748,69.107063],[-141.000751,69.094393],[-141.000753,69.086952],[-141.000755,69.081444],[-141.000756,69.078341],[-141.000761,69.058435],[-141.000762,69.051783],[-141.000779,68.983684],[-141.000781,68.97773],[-141.000786,68.957963],[-141.000789,68.945924],[-141.000794,68.924967],[-141.000796,68.917833],[-141.000803,68.888108],[-141.000805,68.882358],[-141.000811,68.856302],[-141.000813,68.847384],[-141.000815,68.839395],[-141.000816,68.835977],[-141.000817,68.833747],[-141.000817,68.832558],[-141.000817,68.831221],[-141.000818,68.828917],[-141.000825,68.801347],[-141.000841,68.73818],[-141.000849,68.705036],[-141.000852,68.693146],[-141.000852,68.691511],[-141.000853,68.68839],[-141.000854,68.685863],[-141.000857,68.675088],[-141.000859,68.667136],[-141.000859,68.665427],[-141.000859,68.664015],[-141.00086,68.663156],[-141.00086,68.662061],[-141.00086,68.662022],[-141.00086,68.661889],[-141.000861,68.655841],[-141.000864,68.645422],[-141.000864,68.64486],[-141.000864,68.644609],[-141.000865,68.643262],[-141.000865,68.643004],[-141.000865,68.642712],[-141.000865,68.642626],[-141.000865,68.642421],[-141.000865,68.641166],[-141.000865,68.640069],[-141.000865,68.639884],[-141.000865,68.639787],[-141.000865,68.639601],[-141.000866,68.639351],[-141.000866,68.639045],[-141.000866,68.638101],[-141.000871,68.618077],[-141.000873,68.611335],[-141.000874,68.607206],[-141.000874,68.603722],[-141.000877,68.593787],[-141.000881,68.576883],[-141.000883,68.571593],[-141.000884,68.566045],[-141.000894,68.526561],[-141.000897,68.513915],[-141.000901,68.49836],[-141.000902,68.494394],[-141.000903,68.486214],[-141.000905,68.478035],[-141.000907,68.469855],[-141.000909,68.461675],[-141.000911,68.453495],[-141.000912,68.445315],[-141.000914,68.437135],[-141.000916,68.429236],[-141.000918,68.421338],[-141.000922,68.405541],[-141.000924,68.397642],[-141.000926,68.389744],[-141.000928,68.382141],[-141.00093,68.374539],[-141.000931,68.366936],[-141.000933,68.359334],[-141.000935,68.351731],[-141.000937,68.343668],[-141.000938,68.335604],[-141.00094,68.32754],[-141.000942,68.319477],[-141.000944,68.311413],[-141.000945,68.303061],[-141.000947,68.294708],[-141.000949,68.286355],[-141.000951,68.278002],[-141.000953,68.26965],[-141.000955,68.261297],[-141.000956,68.252944],[-141.000958,68.244591],[-141.00096,68.236239],[-141.000962,68.227886],[-141.000964,68.219533],[-141.000941,68.219165],[-141.000964,68.217906],[-141.000965,68.213793],[-141.000966,68.210106],[-141.000968,68.202306],[-141.00097,68.194507],[-141.000971,68.186707],[-141.000972,68.186119],[-141.000974,68.178738],[-141.000976,68.17077],[-141.000978,68.162801],[-141.00098,68.154833],[-141.000982,68.146864],[-141.000985,68.138229],[-141.000987,68.129595],[-141.00099,68.12096],[-141.000992,68.112325],[-141.000995,68.103691],[-141.000997,68.095056],[-141.000999,68.087176],[-141.001002,68.079296],[-141.001004,68.071415],[-141.001006,68.063535],[-141.001008,68.057826],[-141.001008,68.055655],[-141.00101,68.047775],[-141.001012,68.041267],[-141.001012,68.032675],[-141.001013,68.024083],[-141.001014,68.015492],[-141.001014,68.0069],[-141.001015,67.998308],[-141.001015,67.989717],[-141.001016,67.981125],[-141.001017,67.972533],[-141.001023,67.965577],[-141.00102,67.958561],[-141.001023,67.950802],[-141.001026,67.943043],[-141.001029,67.935284],[-141.001032,67.927526],[-141.001035,67.919767],[-141.001038,67.912008],[-141.001041,67.904249],[-141.001042,67.895537],[-141.001044,67.886824],[-141.001045,67.878112],[-141.001047,67.869399],[-141.001048,67.860687],[-141.001049,67.8579],[-141.00105,67.851812],[-141.001053,67.842937],[-141.001055,67.834062],[-141.001057,67.825188],[-141.001057,67.817847],[-141.001057,67.810507],[-141.001057,67.803166],[-141.001057,67.795826],[-141.001057,67.788485],[-141.001058,67.780329],[-141.00106,67.772172],[-141.001062,67.764015],[-141.001063,67.755859],[-141.001065,67.747702],[-141.001066,67.739546],[-141.001068,67.731389],[-141.001069,67.723499],[-141.001071,67.715609],[-141.001073,67.707435],[-141.001075,67.699262],[-141.001078,67.691088],[-141.00108,67.682914],[-141.001082,67.67474],[-141.001085,67.666566],[-141.001087,67.658393],[-141.001088,67.649857],[-141.001088,67.641322],[-141.001089,67.632786],[-141.00109,67.624251],[-141.001091,67.615715],[-141.001091,67.60718],[-141.001092,67.598644],[-141.001094,67.590944],[-141.001095,67.583244],[-141.001096,67.575544],[-141.001098,67.567844],[-141.001091,67.559129],[-141.001084,67.550414],[-141.001077,67.541699],[-141.001071,67.532983],[-141.001064,67.524268],[-141.001057,67.515553],[-141.00106,67.508538],[-141.001062,67.501522],[-141.001064,67.494507],[-141.001073,67.486151],[-141.001082,67.477795],[-141.001091,67.469438],[-141.0011,67.461082],[-141.001103,67.453369],[-141.001105,67.444667],[-141.001107,67.435964],[-141.001109,67.427262],[-141.001111,67.422412],[-141.001112,67.417561],[-141.001113,67.414339],[-141.001114,67.410174],[-141.001115,67.403195],[-141.001118,67.394503],[-141.001119,67.38622],[-141.001121,67.377937],[-141.001123,67.369654],[-141.001125,67.36224],[-141.001128,67.354827],[-141.00113,67.347413],[-141.001132,67.339999],[-141.001134,67.331608],[-141.001136,67.323216],[-141.001138,67.314825],[-141.00114,67.306434],[-141.001142,67.297729],[-141.001144,67.289025],[-141.001147,67.280321],[-141.001149,67.271616],[-141.00115,67.263376],[-141.001151,67.255136],[-141.001153,67.246896],[-141.001154,67.238656],[-141.001156,67.230416],[-141.001157,67.222176],[-141.001159,67.214413],[-141.001161,67.20665],[-141.001164,67.198888],[-141.001166,67.191125],[-141.001168,67.183362],[-141.00117,67.1756],[-141.001173,67.167837],[-141.001174,67.160213],[-141.001176,67.152589],[-141.001177,67.144965],[-141.001179,67.137342],[-141.00118,67.129718],[-141.001182,67.121707],[-141.001184,67.113696],[-141.001186,67.105686],[-141.001188,67.097675],[-141.00119,67.089664],[-141.001192,67.081653],[-141.001194,67.073643],[-141.001196,67.064699],[-141.001199,67.055756],[-141.001202,67.046812],[-141.001204,67.037869],[-141.001207,67.028925],[-141.001209,67.02047],[-141.00121,67.012016],[-141.001212,67.003561],[-141.001213,66.995106],[-141.001215,66.986651],[-141.001216,66.978196],[-141.001218,66.969741],[-141.001219,66.962468],[-141.00122,66.955195],[-141.001221,66.947922],[-141.001222,66.940649],[-141.001224,66.931783],[-141.001226,66.922917],[-141.001228,66.914051],[-141.001229,66.905185],[-141.001231,66.896319],[-141.001233,66.887453],[-141.001234,66.878686],[-141.001236,66.869919],[-141.001237,66.861152],[-141.001238,66.852386],[-141.00124,66.843619],[-141.001241,66.834852],[-141.001242,66.826085],[-141.001243,66.81844],[-141.001244,66.810795],[-141.001245,66.80315],[-141.001246,66.795506],[-141.001247,66.787861],[-141.001249,66.779117],[-141.00125,66.770374],[-141.001252,66.76163],[-141.001252,66.759174],[-141.001253,66.752887],[-141.001254,66.744144],[-141.001256,66.7354],[-141.001257,66.726657],[-141.001259,66.717913],[-141.00126,66.709735],[-141.001261,66.701557],[-141.001263,66.69338],[-141.001264,66.685202],[-141.001266,66.677024],[-141.001267,66.668846],[-141.001269,66.660668],[-141.00127,66.65249],[-141.001271,66.645331],[-141.001272,66.638173],[-141.001272,66.631015],[-141.001273,66.622323],[-141.001273,66.613631],[-141.001273,66.604939],[-141.001273,66.596247],[-141.001273,66.587555],[-141.001273,66.578863],[-141.001276,66.571433],[-141.001278,66.564004],[-141.001281,66.556574],[-141.001284,66.549144],[-141.001284,66.540234],[-141.001285,66.531324],[-141.001285,66.522414],[-141.001286,66.513504],[-141.001286,66.504594],[-141.001287,66.495684],[-141.001289,66.487586],[-141.001291,66.479487],[-141.001294,66.471389],[-141.001296,66.46329],[-141.001298,66.455191],[-141.0013,66.447093],[-141.001303,66.438994],[-141.001301,66.431108],[-141.001299,66.423221],[-141.001297,66.415335],[-141.001299,66.406988],[-141.001299,66.404917],[-141.0013,66.398641],[-141.001301,66.390294],[-141.001303,66.381946],[-141.001304,66.373599],[-141.001305,66.365743],[-141.001306,66.357888],[-141.001306,66.350032],[-141.001307,66.342176],[-141.001307,66.341402],[-141.001308,66.33432],[-141.001309,66.326465],[-141.00131,66.318609],[-141.001311,66.310753],[-141.001311,66.302104],[-141.001311,66.293456],[-141.001311,66.284807],[-141.001311,66.276159],[-141.001311,66.26948],[-141.001311,66.26751],[-141.001311,66.258861],[-141.001311,66.250213],[-141.001312,66.241716],[-141.001313,66.23322],[-141.001314,66.225495],[-141.001315,66.217769],[-141.001317,66.210044],[-141.001318,66.20245],[-141.001318,66.202319],[-141.001319,66.194594],[-141.00132,66.186868],[-141.001322,66.179143],[-141.001322,66.17255],[-141.001322,66.165956],[-141.001321,66.158148],[-141.001321,66.150339],[-141.00132,66.14253],[-141.00132,66.134722],[-141.00132,66.126913],[-141.00132,66.118807],[-141.001321,66.110701],[-141.001321,66.102595],[-141.001322,66.094489],[-141.001322,66.086382],[-141.001323,66.078276],[-141.001326,66.07017],[-141.001329,66.062064],[-141.001332,66.053958],[-141.001331,66.045957],[-141.001331,66.037957],[-141.00133,66.029957],[-141.00133,66.021957],[-141.00133,66.013956],[-141.001329,66.005956],[-141.001329,65.997954],[-141.001328,65.989952],[-141.001327,65.98195],[-141.001327,65.973948],[-141.001326,65.966807],[-141.001326,65.965946],[-141.001326,65.957944],[-141.001325,65.949196],[-141.001325,65.940449],[-141.001325,65.931701],[-141.001324,65.922954],[-141.001324,65.915332],[-141.001324,65.909673],[-141.001324,65.90771],[-141.001324,65.900089],[-141.001324,65.892467],[-141.001323,65.884845],[-141.001323,65.877224],[-141.001323,65.869533],[-141.001324,65.861842],[-141.001324,65.854151],[-141.001324,65.84646],[-141.001325,65.839433],[-141.001325,65.838769],[-141.001325,65.838077],[-141.001325,65.831078],[-141.001325,65.822938],[-141.001326,65.817575],[-141.001326,65.814799],[-141.001326,65.806659],[-141.001327,65.804714],[-141.001327,65.804286],[-141.001327,65.803072],[-141.001327,65.79852],[-141.001327,65.790381],[-141.001328,65.782241],[-141.001328,65.774102],[-141.001329,65.766204],[-141.001329,65.764287],[-141.001329,65.758306],[-141.001329,65.757268],[-141.00133,65.750408],[-141.00133,65.742515],[-141.001331,65.734611],[-141.001331,65.725679],[-141.001331,65.716746],[-141.001331,65.707814],[-141.001331,65.698881],[-141.001331,65.693915],[-141.001331,65.689949],[-141.001331,65.684932],[-141.001331,65.682136],[-141.001331,65.681367],[-141.001331,65.672785],[-141.001331,65.666789],[-141.001331,65.664203],[-141.001332,65.655621],[-141.001332,65.647039],[-141.001332,65.638457],[-141.001332,65.629875],[-141.001333,65.622226],[-141.001333,65.618783],[-141.001334,65.614578],[-141.001334,65.611347],[-141.001334,65.609622],[-141.001335,65.606929],[-141.001335,65.599281],[-141.001336,65.594334],[-141.001336,65.591632],[-141.001337,65.583983],[-141.001337,65.575313],[-141.001338,65.569885],[-141.001338,65.566643],[-141.001338,65.565126],[-141.001338,65.557973],[-141.001339,65.556977],[-141.001339,65.549302],[-141.001339,65.540632],[-141.001339,65.532834],[-141.001339,65.525036],[-141.001338,65.517239],[-141.001338,65.514682],[-141.001338,65.513076],[-141.001338,65.509441],[-141.001338,65.505937],[-141.001338,65.501643],[-141.001337,65.493845],[-141.001337,65.486082],[-141.001337,65.483808],[-141.001337,65.478319],[-141.001337,65.470555],[-141.001337,65.468163],[-141.001337,65.46507],[-141.001337,65.462792],[-141.001337,65.455029],[-141.001337,65.447402],[-141.001337,65.445975],[-141.001336,65.43971],[-141.001336,65.432156],[-141.001333,65.426735],[-141.001335,65.424601],[-141.001336,65.42102],[-141.001333,65.418593],[-141.001335,65.417046],[-141.001334,65.409491],[-141.001334,65.401936],[-141.001334,65.395231],[-141.001333,65.392977],[-141.001332,65.384018],[-141.001333,65.376444],[-141.001332,65.375059],[-141.001332,65.374411],[-141.001331,65.3661],[-141.001331,65.357141],[-141.001333,65.353403],[-141.00133,65.35029],[-141.00133,65.34344],[-141.00133,65.33659],[-141.001329,65.33248],[-141.001329,65.328371],[-141.001328,65.322266],[-141.001328,65.320153],[-141.001328,65.311935],[-141.001327,65.303716],[-141.001328,65.297113],[-141.001326,65.295498],[-141.001325,65.28728],[-141.001325,65.279061],[-141.001324,65.270843],[-141.001323,65.262505],[-141.001321,65.259492],[-141.001322,65.254166],[-141.001322,65.245828],[-141.00132,65.242203],[-141.001321,65.237489],[-141.00132,65.229151],[-141.00132,65.225376],[-141.001319,65.220812],[-141.001319,65.212474],[-141.001317,65.204415],[-141.001318,65.204135],[-141.001318,65.1953],[-141.001318,65.186464],[-141.001318,65.177629],[-141.001318,65.168794],[-141.001318,65.159959],[-141.001318,65.156403],[-141.001318,65.151959],[-141.001318,65.148573],[-141.001317,65.143959],[-141.001317,65.135959],[-141.001316,65.135813],[-141.001316,65.12796],[-141.001316,65.11996],[-141.001316,65.11196],[-141.001315,65.10396],[-141.001315,65.09596],[-141.001314,65.087961],[-141.001314,65.086503],[-141.001314,65.079864],[-141.001314,65.072741],[-141.001314,65.071768],[-141.001314,65.063672],[-141.001314,65.055576],[-141.001314,65.047479],[-141.001314,65.039383],[-141.001314,65.038845],[-141.001314,65.031287],[-141.001314,65.023382],[-141.001314,65.020345],[-141.001313,65.015477],[-141.001313,65.007572],[-141.001312,65.000075],[-141.001312,64.999667],[-141.001312,64.994797],[-141.001312,64.991763],[-141.001312,64.98344],[-141.001311,64.981761],[-141.001312,64.974689],[-141.001313,64.961259],[-141.001313,64.94828],[-141.001313,64.93724],[-141.001314,64.925346],[-141.001314,64.919782],[-141.001314,64.912339],[-141.001314,64.912079],[-141.001314,64.911879],[-141.001314,64.911562],[-141.001314,64.907029],[-141.001314,64.904344],[-141.001315,64.887026],[-141.001315,64.88008],[-141.001315,64.878882],[-141.001315,64.876236],[-141.001315,64.872967],[-141.001315,64.866111],[-141.001316,64.842649],[-141.001316,64.83405],[-141.001316,64.827164],[-141.001316,64.816527],[-141.001317,64.811311],[-141.001317,64.806691],[-141.001317,64.786832],[-141.001317,64.781395],[-141.001317,64.78055],[-141.001317,64.779693],[-141.001317,64.779548],[-141.001317,64.779378],[-141.001317,64.779178],[-141.001317,64.778678],[-141.001318,64.771796],[-141.001318,64.75589],[-141.001318,64.749886],[-141.001318,64.739453],[-141.001319,64.731288],[-141.001319,64.72983],[-141.001319,64.712996],[-141.001319,64.699799],[-141.001319,64.695775],[-141.00132,64.687654],[-141.00132,64.68684],[-141.00132,64.685903],[-141.00132,64.684885],[-141.00132,64.684641],[-141.00132,64.684315],[-141.00132,64.684091],[-141.00132,64.683857],[-141.00132,64.683185],[-141.00132,64.682905],[-141.00132,64.682432],[-141.00132,64.682127],[-141.00132,64.681521],[-141.00132,64.673169],[-141.00132,64.665148],[-141.001321,64.648331],[-141.001321,64.634813],[-141.001321,64.624389],[-141.001321,64.617138],[-141.001321,64.616473],[-141.001322,64.612113],[-141.001322,64.578232],[-141.001323,64.573887],[-141.001323,64.561991],[-141.001323,64.553632],[-141.001323,64.549389],[-141.001324,64.520041],[-141.001324,64.509318],[-141.001324,64.507271],[-141.001324,64.502924],[-141.001324,64.498488],[-141.001325,64.486598],[-141.001325,64.481192],[-141.001325,64.459112],[-141.001326,64.451543],[-141.001326,64.447516],[-141.001326,64.434789],[-141.001326,64.423529],[-141.001327,64.40187],[-141.001327,64.400693],[-141.001327,64.389033],[-141.001327,64.388154],[-141.001327,64.385329],[-141.001327,64.380998],[-141.001328,64.374873],[-141.001328,64.364188],[-141.001328,64.363516],[-141.001328,64.362516],[-141.001328,64.346299],[-141.001329,64.326289],[-141.001329,64.315149],[-141.001329,64.314992],[-141.001329,64.314756],[-141.001329,64.314091],[-141.001329,64.313957],[-141.001329,64.313792],[-141.001329,64.313546],[-141.001329,64.313307],[-141.001329,64.311962],[-141.001329,64.308766],[-141.001329,64.301153],[-141.00133,64.281653],[-141.00133,64.28046],[-141.00133,64.272244],[-141.00133,64.266218],[-141.001331,64.26154],[-141.001331,64.259442],[-141.001331,64.25255],[-141.001331,64.24818],[-141.001331,64.235089],[-141.001332,64.214278],[-141.001332,64.200325],[-141.001332,64.188523],[-141.001332,64.184727],[-141.001333,64.179028],[-141.001333,64.175641],[-141.001333,64.158989],[-141.001333,64.148527],[-141.001334,64.139147],[-141.001334,64.134914],[-141.001334,64.127936],[-141.001334,64.12469],[-141.001334,64.122981],[-141.001334,64.121439],[-141.001334,64.113345],[-141.001334,64.108341],[-141.001334,64.105542],[-141.001334,64.104805],[-141.001335,64.097515],[-141.001335,64.093743],[-141.001335,64.091522],[-141.001335,64.090586],[-141.001335,64.087036],[-141.001335,64.085618],[-141.001335,64.081858],[-141.001335,64.078652],[-141.001335,64.076371],[-141.001335,64.073752],[-141.001335,64.067741],[-141.001336,64.06395],[-141.001336,64.061577],[-141.001336,64.060005],[-141.001336,64.058108],[-141.001336,64.056844],[-141.001336,64.053395],[-141.001336,64.04323],[-141.001336,64.038008],[-141.001336,64.03392],[-141.001336,64.027269],[-141.001337,64.010096],[-141.001337,64.006175],[-141.001337,63.998095],[-141.001338,63.98496],[-141.001338,63.961564],[-141.001338,63.95392],[-141.001338,63.950117],[-141.001337,63.947834],[-141.001338,63.939758],[-141.001339,63.931683],[-141.001338,63.923931],[-141.001338,63.916179],[-141.001341,63.910762],[-141.001338,63.908427],[-141.001341,63.907653],[-141.001342,63.89904],[-141.001343,63.885413],[-141.001344,63.879605],[-141.001354,63.879296],[-141.001344,63.877273],[-141.001345,63.874453],[-141.001353,63.87076],[-141.001352,63.862224],[-141.001346,63.859596],[-141.001346,63.856389],[-141.001347,63.854605],[-141.001352,63.853688],[-141.001347,63.852681],[-141.001351,63.845152],[-141.001351,63.836616],[-141.00135,63.828079],[-141.00135,63.819543],[-141.001351,63.811142],[-141.001352,63.802741],[-141.001353,63.796717],[-141.001353,63.79434],[-141.001354,63.785939],[-141.001355,63.777289],[-141.001355,63.771193],[-141.001356,63.768717],[-141.001357,63.759896],[-141.001357,63.756263],[-141.001358,63.751074],[-141.001358,63.749546],[-141.001357,63.743372],[-141.001356,63.73567],[-141.001355,63.727967],[-141.001361,63.721328],[-141.001354,63.720265],[-141.001353,63.712563],[-141.001352,63.70486],[-141.001363,63.701793],[-141.001351,63.697158],[-141.001346,63.689011],[-141.001342,63.680864],[-141.001338,63.672717],[-141.001334,63.66457],[-141.001329,63.656423],[-141.001368,63.648472],[-141.001332,63.648107],[-141.001335,63.63979],[-141.001338,63.631474],[-141.001371,63.625289],[-141.001341,63.623158],[-141.001371,63.622762],[-141.001371,63.620333],[-141.001344,63.617424],[-141.001344,63.615916],[-141.001344,63.614841],[-141.00135,63.607099],[-141.001355,63.599358],[-141.001373,63.599012],[-141.001357,63.596799],[-141.00136,63.591616],[-141.001366,63.583874],[-141.001371,63.575873],[-141.001369,63.569509],[-141.001367,63.562886],[-141.001377,63.561262],[-141.001365,63.556262],[-141.001367,63.548675],[-141.00137,63.541087],[-141.001371,63.53863],[-141.001372,63.533499],[-141.001375,63.525912],[-141.001378,63.518324],[-141.001382,63.516199],[-141.001376,63.510066],[-141.001383,63.504806],[-141.001383,63.50444],[-141.001383,63.504256],[-141.001376,63.503717],[-141.001373,63.485662],[-141.001373,63.485291],[-141.001373,63.481784],[-141.001386,63.477911],[-141.001372,63.477033],[-141.001371,63.468775],[-141.001375,63.460916],[-141.001378,63.454415],[-141.001379,63.453057],[-141.001383,63.445199],[-141.001387,63.43734],[-141.001388,63.435133],[-141.001391,63.429481],[-141.001395,63.421623],[-141.001394,63.413163],[-141.001393,63.404704],[-141.001394,63.40085],[-141.001393,63.40063],[-141.001394,63.399548],[-141.001392,63.396244],[-141.001391,63.387785],[-141.00139,63.379326],[-141.001396,63.375939],[-141.00139,63.371166],[-141.00139,63.361756],[-141.001389,63.357432],[-141.001389,63.352971],[-141.001389,63.344355],[-141.001389,63.336004],[-141.001388,63.327822],[-141.001388,63.319639],[-141.001387,63.311457],[-141.001387,63.303275],[-141.001386,63.295093],[-141.001386,63.286448],[-141.001385,63.277803],[-141.001386,63.268704],[-141.001388,63.259487],[-141.001388,63.250867],[-141.001388,63.242247],[-141.001388,63.233627],[-141.001388,63.225007],[-141.001388,63.216042],[-141.001389,63.207078],[-141.001389,63.198114],[-141.00139,63.18915],[-141.00139,63.180186],[-141.00139,63.173498],[-141.001391,63.16681],[-141.001391,63.160123],[-141.001392,63.151688],[-141.001393,63.143253],[-141.001394,63.134819],[-141.001395,63.126384],[-141.001395,63.11832],[-141.001396,63.110255],[-141.001397,63.10219],[-141.001397,63.094125],[-141.001398,63.086061],[-141.001399,63.077996],[-141.0014,63.070015],[-141.001401,63.062035],[-141.001402,63.054054],[-141.001404,63.046074],[-141.001405,63.038093],[-141.001405,63.033823],[-141.001406,63.030113],[-141.001406,63.028432],[-141.001407,63.022132],[-141.001408,63.013516],[-141.001409,63.004899],[-141.001409,62.996283],[-141.00141,62.987666],[-141.001411,62.97905],[-141.001412,62.970433],[-141.001412,62.962845],[-141.001413,62.955257],[-141.001414,62.947669],[-141.001414,62.94008],[-141.001415,62.932492],[-141.001416,62.924904],[-141.001416,62.917257],[-141.001416,62.91675],[-141.001416,62.916604],[-141.001416,62.916482],[-141.001417,62.908061],[-141.001417,62.905557],[-141.001417,62.904373],[-141.001417,62.90046],[-141.001418,62.900223],[-141.001418,62.899639],[-141.001418,62.899413],[-141.001418,62.895194],[-141.001418,62.891275],[-141.001419,62.882796],[-141.001419,62.882733],[-141.001419,62.874628],[-141.001419,62.872965],[-141.00142,62.86646],[-141.00142,62.858293],[-141.001421,62.850125],[-141.001421,62.841957],[-141.001422,62.833653],[-141.001423,62.825348],[-141.001424,62.817044],[-141.001424,62.811216],[-141.001424,62.808343],[-141.001425,62.799641],[-141.001426,62.79094],[-141.001427,62.782239],[-141.001427,62.776234],[-141.001428,62.773538],[-141.001428,62.764836],[-141.001429,62.756135],[-141.00143,62.747532],[-141.001431,62.739459],[-141.001431,62.738929],[-141.001431,62.737527],[-141.001432,62.730326],[-141.001433,62.723324],[-141.001433,62.722567],[-141.001434,62.714807],[-141.001435,62.707047],[-141.001436,62.699832],[-141.001436,62.699288],[-141.001437,62.691528],[-141.001437,62.683768],[-141.001437,62.68365],[-141.001438,62.676009],[-141.001439,62.668485],[-141.00144,62.66096],[-141.00144,62.658327],[-141.00144,62.653436],[-141.001441,62.645912],[-141.001442,62.639734],[-141.001442,62.638388],[-141.001443,62.632861],[-141.001463,62.629883],[-141.001464,62.626174],[-141.001445,62.62137],[-141.001446,62.618439],[-141.001446,62.61675],[-141.001446,62.615832],[-141.001465,62.61526],[-141.001465,62.614662],[-141.001465,62.612859],[-141.001465,62.611751],[-141.001465,62.611669],[-141.001465,62.611636],[-141.001465,62.611235],[-141.001465,62.606846],[-141.001467,62.593032],[-141.001467,62.586815],[-141.001468,62.579306],[-141.001469,62.572995],[-141.00147,62.555559],[-141.001472,62.536083],[-141.001472,62.535558],[-141.001472,62.534935],[-141.001472,62.532426],[-141.001473,62.523188],[-141.001473,62.521658],[-141.001474,62.517054],[-141.001474,62.512539],[-141.001475,62.50472],[-141.001475,62.504164],[-141.001475,62.501599],[-141.001475,62.497101],[-141.001476,62.488278],[-141.001477,62.474417],[-141.001481,62.457292],[-141.001482,62.455471],[-141.001482,62.453739],[-141.001482,62.453017],[-141.001482,62.45294],[-141.001482,62.452847],[-141.001482,62.452798],[-141.001482,62.45275],[-141.001482,62.452646],[-141.001482,62.4524],[-141.001482,62.451959],[-141.001483,62.447307],[-141.001484,62.446151],[-141.001484,62.445697],[-141.001484,62.444803],[-141.001484,62.444437],[-141.001485,62.442422],[-141.001485,62.439788],[-141.001486,62.435284],[-141.001488,62.427289],[-141.001489,62.421484],[-141.001491,62.415286],[-141.001492,62.410073],[-141.001494,62.400488],[-141.001497,62.384524],[-141.001498,62.380279],[-141.0015,62.372355],[-141.001504,62.354443],[-141.001513,62.315951],[-141.001516,62.30212],[-141.001518,62.290571],[-141.001521,62.279097],[-141.001523,62.26758],[-141.001524,62.263031],[-141.001526,62.257932],[-141.001528,62.249289],[-141.001528,62.248014],[-141.001528,62.245929],[-141.001529,62.244553],[-141.001529,62.240643],[-141.001532,62.229649],[-141.001532,62.228855],[-141.001532,62.228082],[-141.001532,62.227896],[-141.001532,62.227082],[-141.001533,62.225288],[-141.001533,62.223936],[-141.001534,62.221816],[-141.001535,62.21418],[-141.001536,62.210702],[-141.001544,62.173877],[-141.001547,62.162409],[-141.001547,62.161644],[-141.001547,62.161528],[-141.001547,62.161222],[-141.001547,62.160834],[-141.001547,62.160458],[-141.001547,62.160051],[-141.001547,62.160006],[-141.001547,62.15983],[-141.00155,62.149915],[-141.001555,62.12502],[-141.001556,62.119174],[-141.001558,62.113185],[-141.00157,62.110744],[-141.00157,62.110559],[-141.001562,62.094625],[-141.001571,62.053023],[-141.001581,62.03821],[-141.001581,62.037255],[-141.001581,62.036624],[-141.001577,62.027675],[-141.001581,62.008412],[-141.001583,61.999658],[-141.001584,61.996811],[-141.001585,61.993281],[-141.001585,61.991524],[-141.001586,61.987895],[-141.001589,61.973229],[-141.00159,61.967981],[-141.001591,61.962775],[-141.001593,61.955261],[-141.001596,61.942428],[-141.0016,61.922143],[-141.001602,61.911956],[-141.001603,61.904047],[-141.001604,61.900638],[-141.001604,61.898526],[-141.001606,61.889982],[-141.001607,61.881995],[-141.001609,61.874008],[-141.00161,61.866021],[-141.001611,61.858035],[-141.001613,61.850048],[-141.001614,61.842061],[-141.001614,61.838541],[-141.001615,61.834411],[-141.001616,61.82676],[-141.001617,61.81911],[-141.001618,61.81146],[-141.001619,61.803239],[-141.00162,61.795017],[-141.00162,61.786796],[-141.001621,61.778575],[-141.001622,61.770354],[-141.001623,61.762133],[-141.001624,61.755624],[-141.001624,61.753911],[-141.001625,61.74569],[-141.001625,61.73848],[-141.001625,61.736398],[-141.001625,61.731269],[-141.001627,61.72518],[-141.001628,61.71909],[-141.001629,61.711046],[-141.001629,61.703002],[-141.00163,61.697972],[-141.00163,61.694957],[-141.001631,61.686913],[-141.001632,61.678869],[-141.001633,61.670824],[-141.001633,61.6648],[-141.001634,61.66278],[-141.001634,61.657304],[-141.001634,61.651828],[-141.001634,61.64401],[-141.001635,61.636192],[-141.001636,61.628373],[-141.001637,61.620555],[-141.001638,61.612718],[-141.001639,61.604881],[-141.00164,61.600958],[-141.001641,61.597044],[-141.001642,61.589329],[-141.001642,61.581615],[-141.001643,61.573901],[-141.001643,61.565428],[-141.001644,61.556956],[-141.001644,61.548484],[-141.001644,61.540012],[-141.001644,61.53154],[-141.001644,61.523067],[-141.001644,61.514595],[-141.001644,61.506123],[-141.001644,61.497651],[-141.001644,61.489178],[-141.001644,61.480706],[-141.001644,61.472234],[-141.001642,61.46606],[-141.001643,61.464401],[-141.001645,61.457092],[-141.001648,61.448125],[-141.001651,61.439157],[-141.001654,61.43019],[-141.001654,61.42939],[-141.001657,61.421222],[-141.001659,61.412255],[-141.001662,61.403287],[-141.001665,61.39432],[-141.001668,61.385352],[-141.001671,61.376384],[-141.001674,61.367417],[-141.001676,61.358449],[-141.001679,61.349481],[-141.001682,61.340514],[-141.001685,61.331546],[-141.001688,61.322578],[-141.001691,61.313611],[-141.001693,61.304643],[-141.001696,61.295675],[-141.001699,61.286708],[-141.001702,61.27774],[-141.001705,61.268772],[-141.001707,61.259804],[-141.001708,61.256506],[-141.00171,61.252865],[-141.00171,61.250837],[-141.001713,61.241869],[-141.001716,61.232901],[-141.001719,61.223933],[-141.001721,61.214965],[-141.001724,61.205997],[-141.001727,61.19703],[-141.00173,61.188062],[-141.001732,61.179094],[-141.001735,61.170126],[-141.001738,61.161158],[-141.001741,61.15219],[-141.001744,61.143222],[-141.001746,61.134254],[-141.001749,61.125286],[-141.001752,61.116318],[-141.001755,61.10735],[-141.001758,61.098382],[-141.00176,61.089414],[-141.001763,61.080446],[-141.001766,61.071478],[-141.001769,61.06251],[-141.001771,61.053542],[-141.001774,61.044574],[-141.001777,61.035606],[-141.00178,61.026638],[-141.00178,61.025748],[-141.001782,61.01767],[-141.001785,61.008702],[-141.001788,60.999734],[-141.001791,60.990766],[-141.001791,60.988207],[-141.001793,60.981798],[-141.001796,60.972829],[-141.001799,60.963861],[-141.001802,60.954893],[-141.001804,60.945925],[-141.001806,60.941925],[-141.001807,60.936957],[-141.00181,60.927988],[-141.00181,60.926493],[-141.001813,60.91902],[-141.001815,60.910052],[-141.001818,60.901084],[-141.001821,60.892115],[-141.001824,60.883147],[-141.001825,60.877823],[-141.001827,60.872498],[-141.001828,60.864394],[-141.00183,60.856291],[-141.001831,60.848187],[-141.001833,60.840083],[-141.001834,60.83198],[-141.001835,60.830232],[-141.001836,60.823876],[-141.001834,60.818575],[-141.001834,60.809736],[-141.001834,60.800897],[-141.001834,60.792058],[-141.001834,60.783219],[-141.001834,60.77438],[-141.001834,60.765541],[-141.001834,60.756702],[-141.001834,60.747862],[-141.001834,60.739023],[-141.001834,60.730184],[-141.001834,60.721345],[-141.001834,60.712506],[-141.001834,60.703667],[-141.001834,60.694828],[-141.001834,60.685989],[-141.001834,60.678727],[-141.001834,60.66831],[-141.001834,60.659471],[-141.001834,60.650632],[-141.001834,60.641793],[-141.001834,60.632953],[-141.001834,60.624114],[-141.001834,60.615275],[-141.001834,60.606436],[-141.001834,60.597596],[-141.001834,60.588757],[-141.001833,60.579918],[-141.001833,60.571078],[-141.001833,60.562239],[-141.001833,60.5534],[-141.001833,60.54456],[-141.001833,60.535721],[-141.001833,60.526882],[-141.001833,60.518042],[-141.001833,60.509203],[-141.001833,60.500364],[-141.001833,60.491524],[-141.001833,60.482685],[-141.001833,60.473845],[-141.001833,60.465006],[-141.001833,60.456166],[-141.001833,60.447327],[-141.001833,60.438487],[-141.001833,60.429648],[-141.001833,60.420808],[-141.001833,60.411969],[-141.001833,60.403129],[-141.001833,60.39429],[-141.001833,60.391817],[-141.001833,60.391687],[-141.001833,60.38545],[-141.001833,60.376611],[-141.001833,60.367771],[-141.001833,60.358931],[-141.001833,60.350092],[-141.001833,60.341252],[-141.001833,60.332413],[-141.001833,60.323573],[-141.001833,60.314733],[-141.001833,60.305894],[-140.987609,60.303407],[-140.973388,60.300919],[-140.959169,60.29843],[-140.944952,60.295938],[-140.930737,60.293446],[-140.914528,60.290128],[-140.898323,60.286809],[-140.882121,60.283487],[-140.865923,60.280163],[-140.849728,60.276838],[-140.833536,60.27351],[-140.817347,60.270181],[-140.801162,60.266849],[-140.78498,60.263516],[-140.768801,60.26018],[-140.752224,60.257504],[-140.735649,60.254826],[-140.719077,60.252145],[-140.702508,60.249463],[-140.685942,60.246778],[-140.669378,60.244092],[-140.652817,60.241403],[-140.636258,60.238712],[-140.619703,60.236019],[-140.60315,60.233325],[-140.5866,60.230628],[-140.570052,60.227929],[-140.553508,60.225228],[-140.536966,60.222525],[-140.520427,60.219819],[-140.514784,60.227845],[-140.509139,60.23587],[-140.503491,60.243895],[-140.497841,60.25192],[-140.492187,60.259944],[-140.486531,60.267968],[-140.480872,60.275992],[-140.475211,60.284016],[-140.469546,60.29204],[-140.463879,60.300063],[-140.458209,60.308086],[-140.442246,60.303909],[-140.426287,60.299731],[-140.410332,60.295551],[-140.394382,60.291369],[-140.378435,60.287185],[-140.362492,60.282999],[-140.346554,60.278811],[-140.330619,60.274622],[-140.314689,60.27043],[-140.298763,60.266237],[-140.282841,60.262041],[-140.266922,60.257844],[-140.251008,60.253644],[-140.235098,60.249443],[-140.219192,60.24524],[-140.203291,60.241035],[-140.187393,60.236828],[-140.171499,60.232619],[-140.155609,60.228409],[-140.139724,60.224196],[-140.123842,60.219982],[-140.107965,60.215765],[-140.092092,60.211547],[-140.076223,60.207327],[-140.060357,60.203105],[-140.044496,60.198881],[-140.028639,60.194655],[-140.012786,60.190427],[-139.996938,60.186197],[-139.981093,60.181965],[-139.969142,60.188364],[-139.957186,60.194761],[-139.945226,60.201157],[-139.933261,60.207552],[-139.921292,60.213946],[-139.909317,60.220339],[-139.897339,60.226731],[-139.885355,60.233122],[-139.873367,60.239511],[-139.861374,60.2459],[-139.849376,60.252287],[-139.837374,60.258674],[-139.825367,60.265059],[-139.813356,60.271443],[-139.80134,60.277826],[-139.789319,60.284208],[-139.777293,60.290589],[-139.765263,60.296969],[-139.753228,60.303348],[-139.741188,60.309726],[-139.729144,60.316102],[-139.717095,60.322478],[-139.705041,60.328852],[-139.692982,60.335225],[-139.67533,60.335759],[-139.657677,60.33629],[-139.640023,60.336819],[-139.622369,60.337345],[-139.604714,60.337869],[-139.587059,60.338391],[-139.583772,60.338488],[-139.569403,60.338911],[-139.551747,60.339428],[-139.53409,60.339943],[-139.516432,60.340455],[-139.498774,60.340965],[-139.481115,60.341473],[-139.463456,60.341978],[-139.445796,60.342481],[-139.428136,60.342982],[-139.410475,60.34348],[-139.392814,60.343976],[-139.375152,60.34447],[-139.357489,60.344961],[-139.35091,60.345144],[-139.339826,60.34545],[-139.322163,60.345937],[-139.304499,60.346421],[-139.286834,60.346903],[-139.269169,60.347383],[-139.251504,60.34786],[-139.233837,60.348335],[-139.216171,60.348808],[-139.198504,60.349278],[-139.180836,60.349746],[-139.163168,60.350211],[-139.145499,60.350675],[-139.12783,60.351135],[-139.110161,60.351594],[-139.09249,60.35205],[-139.085955,60.352193],[-139.07482,60.352504],[-139.074146,60.344235],[-139.073472,60.335966],[-139.072798,60.327698],[-139.072125,60.319429],[-139.076851,60.310871],[-139.081573,60.302312],[-139.086294,60.293754],[-139.091012,60.285195],[-139.095727,60.276636],[-139.10044,60.268077],[-139.105151,60.259518],[-139.109859,60.250959],[-139.114564,60.242399],[-139.119267,60.233839],[-139.123968,60.225279],[-139.128666,60.216719],[-139.133362,60.208159],[-139.138055,60.199598],[-139.142746,60.191038],[-139.144456,60.187915],[-139.147434,60.182477],[-139.15212,60.173916],[-139.156804,60.165354],[-139.161485,60.156793],[-139.166164,60.148232],[-139.17084,60.13967],[-139.175514,60.131108],[-139.180185,60.122546],[-139.184854,60.113984],[-139.189521,60.105421],[-139.194185,60.096858],[-139.198847,60.088296],[-139.18845,60.081625],[-139.178057,60.074954],[-139.167669,60.068282],[-139.157285,60.061609],[-139.146905,60.054936],[-139.136529,60.048261],[-139.126157,60.041586],[-139.11579,60.03491],[-139.105427,60.028233],[-139.095067,60.021555],[-139.084713,60.014877],[-139.074362,60.008198],[-139.065245,60.002311],[-139.064015,60.001517],[-139.053673,59.994836],[-139.038634,59.990721],[-139.023599,59.986605],[-139.008568,59.982486],[-138.99354,59.978366],[-138.978516,59.974244],[-138.963496,59.970121],[-138.948479,59.965995],[-138.933467,59.961868],[-138.918458,59.95774],[-138.903452,59.953609],[-138.888451,59.949477],[-138.873453,59.945343],[-138.858459,59.941208],[-138.843469,59.937071],[-138.828482,59.932932],[-138.813499,59.928791],[-138.79852,59.924649],[-138.783323,59.921599],[-138.768128,59.918548],[-138.752936,59.915495],[-138.737746,59.912441],[-138.72256,59.909384],[-138.707376,59.906326],[-138.703381,59.897619],[-138.699388,59.888911],[-138.695397,59.880203],[-138.691408,59.871495],[-138.680253,59.847108],[-138.679457,59.84537],[-138.668649,59.809656],[-138.661567,59.802811],[-138.654487,59.795966],[-138.647411,59.78912],[-138.640338,59.782274],[-138.633267,59.775427],[-138.626199,59.76858],[-138.619909,59.765414],[-138.613767,59.762323],[-138.60134,59.756064],[-138.588917,59.749803],[-138.576498,59.743542],[-138.573652,59.742106],[-138.564085,59.73728],[-138.551676,59.731016],[-138.539272,59.724751],[-138.526872,59.718485],[-138.514477,59.712218],[-138.502087,59.705949],[-138.489701,59.69968],[-138.47732,59.693409],[-138.464943,59.687137],[-138.452571,59.680864],[-138.440204,59.67459],[-138.427841,59.668314],[-138.415483,59.662037],[-138.40313,59.65576],[-138.390781,59.649481],[-138.378437,59.643201],[-138.366098,59.636919],[-138.353763,59.630637],[-138.341432,59.624353],[-138.329107,59.618068],[-138.316785,59.611782],[-138.304469,59.605495],[-138.292157,59.599207],[-138.27985,59.592918],[-138.267547,59.586627],[-138.255249,59.580335],[-138.242955,59.574042],[-138.230666,59.567748],[-138.218382,59.561453],[-138.206102,59.555156],[-138.193827,59.548859],[-138.181556,59.54256],[-138.16929,59.53626],[-138.157029,59.529959],[-138.144772,59.523657],[-138.13252,59.517354],[-138.120272,59.511049],[-138.108029,59.504744],[-138.09579,59.498437],[-138.072462,59.486402],[-138.071327,59.48582],[-138.059102,59.479509],[-138.046882,59.473198],[-138.034666,59.466886],[-138.022714,59.460702],[-138.010836,59.454556],[-138.003467,59.450742],[-137.998962,59.448409],[-137.987093,59.442262],[-137.975227,59.436113],[-137.963367,59.429963],[-137.957464,59.426904],[-137.945328,59.420606],[-137.933197,59.414306],[-137.92107,59.408006],[-137.908948,59.401705],[-137.896831,59.395402],[-137.884718,59.389098],[-137.872609,59.382794],[-137.860505,59.376488],[-137.848405,59.370181],[-137.83631,59.363872],[-137.82422,59.357563],[-137.812134,59.351253],[-137.800052,59.344941],[-137.787975,59.338628],[-137.775902,59.332314],[-137.763834,59.325999],[-137.75177,59.319683],[-137.739711,59.313366],[-137.727656,59.307048],[-137.715606,59.300728],[-137.70356,59.294408],[-137.691519,59.288086],[-137.679482,59.281763],[-137.667449,59.275439],[-137.655421,59.269114],[-137.643398,59.262788],[-137.631379,59.256461],[-137.619364,59.250133],[-137.607354,59.243803],[-137.603262,59.235218],[-137.599173,59.226633],[-137.595086,59.218048],[-137.591,59.209462],[-137.586917,59.200877],[-137.582836,59.192291],[-137.578756,59.183705],[-137.574679,59.175119],[-137.570604,59.166533],[-137.566531,59.157947],[-137.56246,59.149361],[-137.558391,59.140774],[-137.554324,59.132187],[-137.550259,59.123601],[-137.546196,59.115014],[-137.542135,59.106427],[-137.539116,59.097782],[-137.536098,59.089137],[-137.533081,59.080493],[-137.530067,59.071848],[-137.527053,59.063203],[-137.524041,59.054558],[-137.521031,59.045913],[-137.518022,59.037268],[-137.515014,59.028622],[-137.512009,59.019977],[-137.509004,59.011332],[-137.506001,59.002686],[-137.503,58.99404],[-137.5,58.985395],[-137.502908,58.976615],[-137.505814,58.967835],[-137.508718,58.959054],[-137.511622,58.950274],[-137.514523,58.941494],[-137.517423,58.932713],[-137.520322,58.923933],[-137.523219,58.915152],[-137.524828,58.910276],[-137.526115,58.906371],[-137.525292,58.906393],[-137.511238,58.90677],[-137.496361,58.907167],[-137.481483,58.907563],[-137.451726,58.908349],[-137.440496,58.914465],[-137.429261,58.920581],[-137.418022,58.926696],[-137.406779,58.93281],[-137.395533,58.938923],[-137.384282,58.945035],[-137.373027,58.951146],[-137.361769,58.957256],[-137.350506,58.963365],[-137.33924,58.969473],[-137.327969,58.97558],[-137.316694,58.981686],[-137.305416,58.987791],[-137.294133,58.993895],[-137.282847,58.999998],[-137.269458,59.004021],[-137.256066,59.008042],[-137.24267,59.012062],[-137.229272,59.016081],[-137.21587,59.020099],[-137.202466,59.024115],[-137.189058,59.028129],[-137.175647,59.032142],[-137.16265,59.03652],[-137.14965,59.040896],[-137.136647,59.045271],[-137.104634,59.056031],[-137.097617,59.058388],[-137.0846,59.062758],[-137.0727,59.066751],[-137.060797,59.070743],[-137.048891,59.074734],[-137.036983,59.078723],[-137.023529,59.083228],[-137.010071,59.087732],[-136.996609,59.092234],[-136.983144,59.096734],[-136.969676,59.101234],[-136.956411,59.106227],[-136.943141,59.111218],[-136.929868,59.116208],[-136.916591,59.121197],[-136.90331,59.126184],[-136.890025,59.13117],[-136.876737,59.136154],[-136.86474,59.142107],[-136.85274,59.148059],[-136.840736,59.15401],[-136.828727,59.159959],[-136.811281,59.160396],[-136.793834,59.16083],[-136.776387,59.161261],[-136.75894,59.161691],[-136.741492,59.162117],[-136.724044,59.162542],[-136.706595,59.162964],[-136.689146,59.163384],[-136.671696,59.163802],[-136.654246,59.164217],[-136.636795,59.16463],[-136.619345,59.16504],[-136.601893,59.165449],[-136.584442,59.165854],[-136.576566,59.173684],[-136.568688,59.181513],[-136.560806,59.189341],[-136.55292,59.197169],[-136.54503,59.204997],[-136.537137,59.212824],[-136.529241,59.22065],[-136.52134,59.228476],[-136.513436,59.236302],[-136.505529,59.244127],[-136.497618,59.251951],[-136.489703,59.259775],[-136.492729,59.267454],[-136.495756,59.275133],[-136.482503,59.279607],[-136.469248,59.284079],[-136.470016,59.292565],[-136.470785,59.301052],[-136.471554,59.309538],[-136.472324,59.318024],[-136.472634,59.321364],[-136.472695,59.322015],[-136.473363,59.329761],[-136.474032,59.337506],[-136.474701,59.345252],[-136.47537,59.352997],[-136.476039,59.360743],[-136.476709,59.368488],[-136.477379,59.376233],[-136.477357,59.385192],[-136.477335,59.394152],[-136.477312,59.403111],[-136.47729,59.41207],[-136.477268,59.421029],[-136.477246,59.429988],[-136.477223,59.438947],[-136.477201,59.447906],[-136.477179,59.456865],[-136.477156,59.465824],[-136.462385,59.463543],[-136.447616,59.461261],[-136.432848,59.458977],[-136.418083,59.456691],[-136.40332,59.454404],[-136.388559,59.452115],[-136.373799,59.449824],[-136.372444,59.449612],[-136.368243,59.44896],[-136.365368,59.449669],[-136.362507,59.450374],[-136.36189,59.450526],[-136.36135,59.450656],[-136.360725,59.450809],[-136.346803,59.454239],[-136.332879,59.457666],[-136.318952,59.461093],[-136.305022,59.464518],[-136.298095,59.470757],[-136.291165,59.476996],[-136.284233,59.483234],[-136.27711,59.489614],[-136.269546,59.496444],[-136.261791,59.503415],[-136.254032,59.510386],[-136.246271,59.517356],[-136.238506,59.524326],[-136.238837,59.533097],[-136.239084,59.539658],[-136.239168,59.541869],[-136.239499,59.550641],[-136.23983,59.559412],[-136.254079,59.56447],[-136.268331,59.569525],[-136.282588,59.57458],[-136.296849,59.579632],[-136.311114,59.584683],[-136.325384,59.589733],[-136.339658,59.594781],[-136.353936,59.599827],[-136.338163,59.603778],[-136.322386,59.607727],[-136.306605,59.611675],[-136.290821,59.61562],[-136.282201,59.617773],[-136.273579,59.619926],[-136.265359,59.621977],[-136.259022,59.623558],[-136.249749,59.625872],[-136.241085,59.628031],[-136.238762,59.628611],[-136.22348,59.632418],[-136.208194,59.636223],[-136.192904,59.640027],[-136.177631,59.641448],[-136.162356,59.642868],[-136.147079,59.644286],[-136.131802,59.645702],[-136.116523,59.647117],[-136.101243,59.64853],[-136.085961,59.649941],[-136.069989,59.651413],[-136.054016,59.652883],[-136.042641,59.653929],[-136.031266,59.654973],[-136.019801,59.656025],[-136.008336,59.657076],[-136.007326,59.65717],[-135.993578,59.658428],[-135.979935,59.659675],[-135.966291,59.660921],[-135.952645,59.662166],[-135.939244,59.66605],[-135.92584,59.669933],[-135.912432,59.673815],[-135.899021,59.677695],[-135.885608,59.681574],[-135.872191,59.685452],[-135.86265,59.688208],[-135.860516,59.688824],[-135.8555,59.690273],[-135.853107,59.690964],[-135.838343,59.695225],[-135.823574,59.699485],[-135.808803,59.703743],[-135.794027,59.707999],[-135.779248,59.712254],[-135.765214,59.71629],[-135.751177,59.720326],[-135.737137,59.724359],[-135.729477,59.726559],[-135.723093,59.728392],[-135.723075,59.728397],[-135.717312,59.730051],[-135.707877,59.732758],[-135.692657,59.737123],[-135.677433,59.741485],[-135.662206,59.745846],[-135.646974,59.750206],[-135.631738,59.754563],[-135.616498,59.758919],[-135.601254,59.763273],[-135.586007,59.767625],[-135.570755,59.771975],[-135.555499,59.776324],[-135.54024,59.780671],[-135.524976,59.785016],[-135.509709,59.789359],[-135.494437,59.793701],[-135.479162,59.798041],[-135.467237,59.792003],[-135.455317,59.785964],[-135.4434,59.779924],[-135.431489,59.773882],[-135.419581,59.76784],[-135.407678,59.761797],[-135.395779,59.755752],[-135.383885,59.749707],[-135.371994,59.74366],[-135.360108,59.737612],[-135.346677,59.7327],[-135.333249,59.727787],[-135.319825,59.722873],[-135.306405,59.717957],[-135.29299,59.713039],[-135.284888,59.710048],[-135.279578,59.70812],[-135.26617,59.7032],[-135.25918,59.700629],[-135.252765,59.698279],[-135.243217,59.697211],[-135.235406,59.696337],[-135.233668,59.696144],[-135.23021,59.687802],[-135.226753,59.67946],[-135.223842,59.672379],[-135.223298,59.671118],[-135.219844,59.662776],[-135.209459,59.656602],[-135.199078,59.650427],[-135.1887,59.644251],[-135.178326,59.638075],[-135.167956,59.631897],[-135.165613,59.6305],[-135.164284,59.629712],[-135.162201,59.628464],[-135.15759,59.62572],[-135.138106,59.624421],[-135.135492,59.624247],[-135.128221,59.623763],[-135.117833,59.62307],[-135.112644,59.619612],[-135.102161,59.612621],[-135.091682,59.605629],[-135.081208,59.598636],[-135.070738,59.591643],[-135.060272,59.584648],[-135.04981,59.577653],[-135.039353,59.570657],[-135.0289,59.56366],[-135.028803,59.557145],[-135.028705,59.550629],[-135.028597,59.543411],[-135.028534,59.539236],[-135.028412,59.531174],[-135.02829,59.523111],[-135.028168,59.515049],[-135.028047,59.506987],[-135.027925,59.498925],[-135.027803,59.490862],[-135.027682,59.4828],[-135.02756,59.474738],[-135.039997,59.468998],[-135.043748,59.467261],[-135.052429,59.463256],[-135.064857,59.457514],[-135.075616,59.45254],[-135.077281,59.45177],[-135.083218,59.445711],[-135.089154,59.439651],[-135.095088,59.433592],[-135.10102,59.427531],[-135.087096,59.422486],[-135.073176,59.41744],[-135.059261,59.412392],[-135.04535,59.407342],[-135.031443,59.402291],[-135.01754,59.397239],[-135.003641,59.392185],[-134.989746,59.387129],[-134.99655,59.380333],[-135.00335,59.373537],[-135.010148,59.36674],[-135.016943,59.359943],[-135.023736,59.353146],[-135.030525,59.346348],[-135.029466,59.345368],[-135.022665,59.339081],[-135.014808,59.331813],[-135.006955,59.324545],[-134.999105,59.317277],[-134.991258,59.310008],[-134.983414,59.302738],[-134.975574,59.295468],[-134.967737,59.288198],[-134.959904,59.280927],[-134.94369,59.278947],[-134.927479,59.276966],[-134.91127,59.274982],[-134.895062,59.272996],[-134.878856,59.271008],[-134.862652,59.269019],[-134.846451,59.267027],[-134.83025,59.265033],[-134.814052,59.263037],[-134.797856,59.26104],[-134.781662,59.25904],[-134.765469,59.257038],[-134.749279,59.255034],[-134.73309,59.253028],[-134.716903,59.25102],[-134.700718,59.24901],[-134.697628,59.240905],[-134.694539,59.232801],[-134.691452,59.224695],[-134.688366,59.21659],[-134.685282,59.208485],[-134.682199,59.20038],[-134.679117,59.192274],[-134.667744,59.186164],[-134.656375,59.180052],[-134.64501,59.17394],[-134.633649,59.167826],[-134.622292,59.161711],[-134.610939,59.155596],[-134.59959,59.149479],[-134.588245,59.143361],[-134.576904,59.137243],[-134.565568,59.131123],[-134.549133,59.131223],[-134.532698,59.131321],[-134.516263,59.131417],[-134.499828,59.131511],[-134.483393,59.131602],[-134.477342,59.12454],[-134.471293,59.117477],[-134.465247,59.110414],[-134.459203,59.103351],[-134.453162,59.096288],[-134.447124,59.089224],[-134.437791,59.082017],[-134.428463,59.07481],[-134.419138,59.067602],[-134.409817,59.060393],[-134.400501,59.053184],[-134.391188,59.045974],[-134.381879,59.038763],[-134.385494,59.030256],[-134.389107,59.021749],[-134.392719,59.013241],[-134.396329,59.004734],[-134.399937,58.996226],[-134.403543,58.987718],[-134.407147,58.97921],[-134.391531,58.976377],[-134.375918,58.973542],[-134.360307,58.970705],[-134.344699,58.967866],[-134.329093,58.965025],[-134.321437,58.96363],[-134.313733,58.962226],[-134.313581,58.962199],[-134.31349,58.962182],[-134.31809,58.954429],[-134.322687,58.946675],[-134.327282,58.938921],[-134.331875,58.931167],[-134.336466,58.923413],[-134.327074,58.916018],[-134.317687,58.908623],[-134.308303,58.901227],[-134.299923,58.89453],[-134.291546,58.887832],[-134.283173,58.881134],[-134.274803,58.874436],[-134.274499,58.874193],[-134.267446,58.868545],[-134.266436,58.867736],[-134.258072,58.861037],[-134.25158,58.858919],[-134.24375,58.856366],[-134.229431,58.851693],[-134.215116,58.847018],[-134.200806,58.842343],[-134.186499,58.837665],[-134.172196,58.832986],[-134.157896,58.828305],[-134.143601,58.823623],[-134.12931,58.818939],[-134.115022,58.814254],[-134.100738,58.809567],[-134.086458,58.804878],[-134.072182,58.800188],[-134.05791,58.795496],[-134.043641,58.790803],[-134.029377,58.786108],[-134.015116,58.781411],[-134.000859,58.776713],[-133.986606,58.772013],[-133.972357,58.767312],[-133.957693,58.763111],[-133.943032,58.758909],[-133.928374,58.754704],[-133.91372,58.750499],[-133.89907,58.746291],[-133.884423,58.742082],[-133.86978,58.737871],[-133.85514,58.733658],[-133.840504,58.729444],[-133.832141,58.722125],[-133.823782,58.714806],[-133.815426,58.707486],[-133.807074,58.700165],[-133.798725,58.692844],[-133.793756,58.688484],[-133.790379,58.685522],[-133.782038,58.6782],[-133.773699,58.670877],[-133.765364,58.663553],[-133.757033,58.656229],[-133.748705,58.648905],[-133.746498,58.646963],[-133.740381,58.64158],[-133.73206,58.634254],[-133.723743,58.626928],[-133.715429,58.619601],[-133.707118,58.612274],[-133.696303,58.60584],[-133.685492,58.599405],[-133.674685,58.592969],[-133.667872,58.588908],[-133.661061,58.584847],[-133.657411,58.58267],[-133.655993,58.581825],[-133.65198,58.579432],[-133.649702,58.578072],[-133.642577,58.573821],[-133.633177,58.56821],[-133.62378,58.562598],[-133.618223,58.559278],[-133.615947,58.557918],[-133.613123,58.5562],[-133.580976,58.536998],[-133.557805,58.523131],[-133.552508,58.520425],[-133.545742,58.516967],[-133.534885,58.511416],[-133.533684,58.510802],[-133.527315,58.507544],[-133.521629,58.504635],[-133.516331,58.501924],[-133.509579,58.498468],[-133.505952,58.496611],[-133.497533,58.492299],[-133.486628,58.486712],[-133.485491,58.486129],[-133.473453,58.479958],[-133.46142,58.473786],[-133.449391,58.467613],[-133.437366,58.461438],[-133.425345,58.455263],[-133.413329,58.449086],[-133.401316,58.442908],[-133.389308,58.436729],[-133.377305,58.430549],[-133.389345,58.424435],[-133.401382,58.418319],[-133.413415,58.412202],[-133.425443,58.406085],[-133.437467,58.399966],[-133.449487,58.393846],[-133.461504,58.387723],[-133.453742,58.380302],[-133.445985,58.372878],[-133.43823,58.365455],[-133.434631,58.362007],[-133.430479,58.35803],[-133.428902,58.356519],[-133.423252,58.351104],[-133.422732,58.350606],[-133.414987,58.343181],[-133.412206,58.340513],[-133.407246,58.335755],[-133.400947,58.32971],[-133.399508,58.328329],[-133.391773,58.320902],[-133.384042,58.313475],[-133.376313,58.306048],[-133.368588,58.29862],[-133.360866,58.291191],[-133.353148,58.283762],[-133.345433,58.276333],[-133.33599,58.270182],[-133.32655,58.26403],[-133.316984,58.257792],[-133.312761,58.255038],[-133.307681,58.251724],[-133.303475,58.24898],[-133.298251,58.245571],[-133.289069,58.239575],[-133.279402,58.233261],[-133.269982,58.227105],[-133.261787,58.220959],[-133.253595,58.214812],[-133.245405,58.208665],[-133.237096,58.202425],[-133.229035,58.196369],[-133.220854,58.19022],[-133.218706,58.188605],[-133.21824,58.188254],[-133.215079,58.185878],[-133.209306,58.181535],[-133.207085,58.179863],[-133.200073,58.174586],[-133.190815,58.167616],[-133.18156,58.160646],[-133.172311,58.153676],[-133.166908,58.145607],[-133.161509,58.137539],[-133.156112,58.12947],[-133.150718,58.121401],[-133.145326,58.113332],[-133.139937,58.105263],[-133.13455,58.097193],[-133.129166,58.089123],[-133.123784,58.081053],[-133.118404,58.072983],[-133.113027,58.064913],[-133.107653,58.056842],[-133.10228,58.048771],[-133.096911,58.0407],[-133.091543,58.032628],[-133.086178,58.024557],[-133.080816,58.016485],[-133.075455,58.008413],[-133.070098,58.00034],[-133.060935,57.993046],[-133.051775,57.985751],[-133.04262,57.978456],[-133.033468,57.971159],[-133.02432,57.963862],[-133.015175,57.956565],[-133.006034,57.949267],[-132.996897,57.941968],[-132.987764,57.934668],[-132.978634,57.927368],[-132.969508,57.920067],[-132.960386,57.912765],[-132.951268,57.905463],[-132.942153,57.89816],[-132.933042,57.890856],[-132.923934,57.883552],[-132.91483,57.876247],[-132.90573,57.868942],[-132.896634,57.861635],[-132.887541,57.854329],[-132.878452,57.847021],[-132.869367,57.839713],[-132.86277,57.83173],[-132.856175,57.823747],[-132.849584,57.815764],[-132.842995,57.807781],[-132.836409,57.799797],[-132.829826,57.791812],[-132.823246,57.783828],[-132.816669,57.775843],[-132.810095,57.767857],[-132.803524,57.759871],[-132.796956,57.751885],[-132.79039,57.743899],[-132.783828,57.735912],[-132.777268,57.727925],[-132.770711,57.719938],[-132.764158,57.71195],[-132.757607,57.703962],[-132.751058,57.695973],[-132.742843,57.688772],[-132.73463,57.681571],[-132.726421,57.674369],[-132.718215,57.667167],[-132.710012,57.659964],[-132.701812,57.652761],[-132.693616,57.645557],[-132.685423,57.638353],[-132.677233,57.631148],[-132.669046,57.623942],[-132.660863,57.616736],[-132.653696,57.608724],[-132.652456,57.607357],[-132.652324,57.607209],[-132.646532,57.600712],[-132.639371,57.592699],[-132.632213,57.584686],[-132.625058,57.576672],[-132.617907,57.568658],[-132.610759,57.560644],[-132.603613,57.552629],[-132.596471,57.544614],[-132.589332,57.536598],[-132.582197,57.528582],[-132.575064,57.520566],[-132.567934,57.512549],[-132.560808,57.504531],[-132.553685,57.496514],[-132.544455,57.489182],[-132.535229,57.481849],[-132.526006,57.474516],[-132.516788,57.467182],[-132.507573,57.459847],[-132.498362,57.452512],[-132.489154,57.445176],[-132.47995,57.437839],[-132.47075,57.430502],[-132.461553,57.423164],[-132.45236,57.415825],[-132.443171,57.408486],[-132.433986,57.401146],[-132.424804,57.393805],[-132.415626,57.386464],[-132.406451,57.379121],[-132.39728,57.371779],[-132.388113,57.364435],[-132.37895,57.357091],[-132.36979,57.349746],[-132.369224,57.349106],[-132.362995,57.342055],[-132.356203,57.334364],[-132.349415,57.326673],[-132.342629,57.318981],[-132.335846,57.311288],[-132.329065,57.303595],[-132.32597,57.300083],[-132.322288,57.295902],[-132.315513,57.288209],[-132.308741,57.280515],[-132.301972,57.272821],[-132.295206,57.265126],[-132.288443,57.257431],[-132.281682,57.249736],[-132.280413,57.24829],[-132.274924,57.24204],[-132.268169,57.234344],[-132.261417,57.226647],[-132.254668,57.21895],[-132.247921,57.211253],[-132.255511,57.203773],[-132.263097,57.196292],[-132.27068,57.188811],[-132.27826,57.181329],[-132.285837,57.173847],[-132.293411,57.166365],[-132.300981,57.158882],[-132.308549,57.151398],[-132.316114,57.143914],[-132.323676,57.13643],[-132.331234,57.128945],[-132.33879,57.121459],[-132.346342,57.113974],[-132.353892,57.106487],[-132.361438,57.099001],[-132.368982,57.091513],[-132.353545,57.08932],[-132.338109,57.087125],[-132.322676,57.084928],[-132.307245,57.082729],[-132.291815,57.080529],[-132.276387,57.078326],[-132.260961,57.076122],[-132.245537,57.073915],[-132.230115,57.071707],[-132.214694,57.069497],[-132.199276,57.067284],[-132.183859,57.06507],[-132.168444,57.062855],[-132.153031,57.060637],[-132.137619,57.058417],[-132.12221,57.056195],[-132.106802,57.053972],[-132.091397,57.051747],[-132.075993,57.049519],[-132.06059,57.04729],[-132.04519,57.045059],[-132.049126,57.03649],[-132.05306,57.02792],[-132.056993,57.019351],[-132.060923,57.010781],[-132.062649,57.007016],[-132.064852,57.002211],[-132.068779,56.993641],[-132.072704,56.985071],[-132.076628,56.976501],[-132.080549,56.967931],[-132.084469,56.95936],[-132.088387,56.95079],[-132.092303,56.942219],[-132.096217,56.933648],[-132.10013,56.925077],[-132.104041,56.916506],[-132.10795,56.907935],[-132.111857,56.899363],[-132.115762,56.890792],[-132.115964,56.890349],[-132.119666,56.88222],[-132.123568,56.873648],[-132.109617,56.869903],[-132.095669,56.866156],[-132.081723,56.862408],[-132.067781,56.858658],[-132.053841,56.854906],[-132.039904,56.851153],[-132.02597,56.847398],[-132.012039,56.843642],[-131.99811,56.839884],[-131.984184,56.836125],[-131.970261,56.832364],[-131.956341,56.828602],[-131.942424,56.824838],[-131.928509,56.821072],[-131.914597,56.817305],[-131.900688,56.813536],[-131.886782,56.809766],[-131.872878,56.805994],[-131.876911,56.798521],[-131.880942,56.791047],[-131.884971,56.783573],[-131.888999,56.776099],[-131.893025,56.768624],[-131.897049,56.76115],[-131.901072,56.753675],[-131.895294,56.746434],[-131.889518,56.739193],[-131.883744,56.731952],[-131.877972,56.72471],[-131.872203,56.717468],[-131.866436,56.710226],[-131.860671,56.702983],[-131.858701,56.694945],[-131.856731,56.686907],[-131.854763,56.678869],[-131.852795,56.67083],[-131.851748,56.666557],[-131.85169,56.666318],[-131.850585,56.661805],[-131.850408,56.661079],[-131.849509,56.657387],[-131.849149,56.655911],[-131.849114,56.655765],[-131.847658,56.649802],[-131.847544,56.649234],[-131.847178,56.647733],[-131.847034,56.647242],[-131.845409,56.640582],[-131.844474,56.636749],[-131.843539,56.632918],[-131.841485,56.624489],[-131.839431,56.616061],[-131.837378,56.607632],[-131.835327,56.599203],[-131.824132,56.599788],[-131.812937,56.600372],[-131.801741,56.600955],[-131.788982,56.601617],[-131.776223,56.602278],[-131.763462,56.602937],[-131.761424,56.603042],[-131.75134,56.603564],[-131.737968,56.604251],[-131.722003,56.605072],[-131.706038,56.605891],[-131.69041,56.606691],[-131.674782,56.607489],[-131.659153,56.608284],[-131.645921,56.608957],[-131.632688,56.609628],[-131.619784,56.610281],[-131.606879,56.610932],[-131.593974,56.611582],[-131.581069,56.612231],[-131.570149,56.606279],[-131.559233,56.600326],[-131.548321,56.594372],[-131.537411,56.588417],[-131.526506,56.58246],[-131.515603,56.576503],[-131.504705,56.570546],[-131.493809,56.564587],[-131.482917,56.558627],[-131.472029,56.552666],[-131.459323,56.548303],[-131.44662,56.543938],[-131.433921,56.539572],[-131.421224,56.535205],[-131.40853,56.530837],[-131.395839,56.526467],[-131.383151,56.522096],[-131.370466,56.517723],[-131.357783,56.51335],[-131.345104,56.508975],[-131.332428,56.504598],[-131.319754,56.500221],[-131.311042,56.497209],[-131.297388,56.49249],[-131.295266,56.491755],[-131.28172,56.487069],[-131.268177,56.482381],[-131.254637,56.477692],[-131.241101,56.473001],[-131.227567,56.468308],[-131.214038,56.463614],[-131.200511,56.458919],[-131.186988,56.454222],[-131.173469,56.449524],[-131.162693,56.444087],[-131.15192,56.43865],[-131.14115,56.433211],[-131.130384,56.427772],[-131.11962,56.422331],[-131.10886,56.41689],[-131.098103,56.411448],[-131.087349,56.406005],[-131.072152,56.404076],[-131.056957,56.402145],[-131.041764,56.400212],[-131.026572,56.398278],[-131.012236,56.396451],[-131.011382,56.396342],[-130.996193,56.394404],[-130.981006,56.392464],[-130.965821,56.390522],[-130.953977,56.389005],[-130.942134,56.387487],[-130.932436,56.386242],[-130.922739,56.384997],[-130.914849,56.383986],[-130.903104,56.382477],[-130.891361,56.380967],[-130.885158,56.380169],[-130.879619,56.379457],[-130.869634,56.378171],[-130.859651,56.376885],[-130.844113,56.37488],[-130.828578,56.372874],[-130.813044,56.370866],[-130.797512,56.368856],[-130.781981,56.366844],[-130.773915,56.36178],[-130.765852,56.356714],[-130.757791,56.351649],[-130.75138,56.347618],[-130.746029,56.344253],[-130.744971,56.343588],[-130.740978,56.341078],[-130.736838,56.338475],[-130.731253,56.334963],[-130.725745,56.331496],[-130.720238,56.32803],[-130.710002,56.321588],[-130.702034,56.316567],[-130.694067,56.311547],[-130.686104,56.306525],[-130.676884,56.300712],[-130.667667,56.294898],[-130.657577,56.288528],[-130.647489,56.282158],[-130.646218,56.281355],[-130.645514,56.28091],[-130.636135,56.274984],[-130.626758,56.269056],[-130.62331,56.266878],[-130.615452,56.265036],[-130.604434,56.262453],[-130.593417,56.259869],[-130.582402,56.257284],[-130.570755,56.254552],[-130.560679,56.252186],[-130.550605,56.249819],[-130.540532,56.247451],[-130.525998,56.246575],[-130.511465,56.245697],[-130.496933,56.244818],[-130.482401,56.243937],[-130.46787,56.243054],[-130.464976,56.236058],[-130.462084,56.229061],[-130.459193,56.222064],[-130.456303,56.215067],[-130.45383,56.209074],[-130.451357,56.203081],[-130.4496,56.198828],[-130.446191,56.190565],[-130.442884,56.182546],[-130.439579,56.174528],[-130.436184,56.166286],[-130.43279,56.158045],[-130.429397,56.149803],[-130.426006,56.141561],[-130.410819,56.138961],[-130.395634,56.136359],[-130.38045,56.133755],[-130.365269,56.13115],[-130.35009,56.128542],[-130.337097,56.12453],[-130.324106,56.120517],[-130.311118,56.116503],[-130.298133,56.112488],[-130.28515,56.108471],[-130.272171,56.104452],[-130.259194,56.100432],[-130.247081,56.096678],[-130.246767,56.096581],[-130.246219,56.096411],[-130.246199,56.096415],[-130.246143,56.096425],[-130.238106,56.097921],[-130.229992,56.099429],[-130.215978,56.102032],[-130.201962,56.104634],[-130.187944,56.107233],[-130.173925,56.109832],[-130.159903,56.112428],[-130.14588,56.115023],[-130.131855,56.117617],[-130.117828,56.120208],[-130.103799,56.122798],[-130.096825,56.114848],[-130.089854,56.106897],[-130.082886,56.098946],[-130.076822,56.092022],[-130.070761,56.085098],[-130.064702,56.078173],[-130.06111,56.074072],[-130.057519,56.069971],[-130.054266,56.066247],[-130.048455,56.059599],[-130.042646,56.052951],[-130.039209,56.049016],[-130.03801,56.047644],[-130.036839,56.046303],[-130.036501,56.045916],[-130.034878,56.044061],[-130.02903,56.037363],[-130.023183,56.030665],[-130.021073,56.028246],[-130.017338,56.023966],[-130.011496,56.017267],[-130.007489,56.012671],[-130.003484,56.008075],[-130.003965,56.0012],[-130.004015,56.000895],[-130.005229,55.992989],[-130.006415,55.985285],[-130.0076,55.977582],[-130.008785,55.969879],[-130.009969,55.962175],[-130.011153,55.954472],[-130.011328,55.953331],[-130.012336,55.946769],[-130.013633,55.9383],[-130.014929,55.929831],[-130.015798,55.92413],[-130.016652,55.91852],[-130.017037,55.916029],[-130.01763,55.912185],[-130.017669,55.911933],[-130.015574,55.911933],[-130.003787,55.911931],[-130.003787,55.907442],[-130.007733,55.903207],[-130.009948,55.900813],[-130.011466,55.89918],[-130.012736,55.897814],[-130.014744,55.895654],[-130.014901,55.895486],[-130.019499,55.89054],[-130.021888,55.88797],[-130.024573,55.885082],[-130.026736,55.882755],[-130.028515,55.880842],[-130.033498,55.875482],[-130.034906,55.873968],[-130.036557,55.872192],[-130.036677,55.872063],[-130.037626,55.871042],[-130.038276,55.870343],[-130.03925,55.869295],[-130.041238,55.867156],[-130.041306,55.867083],[-130.041765,55.866589],[-130.042382,55.865926],[-130.042892,55.865378],[-130.044288,55.863877],[-130.048816,55.859006],[-130.053041,55.854727],[-130.054621,55.852762],[-130.055479,55.851839],[-130.056257,55.851003],[-130.05694,55.850268],[-130.057416,55.849756],[-130.057906,55.849229],[-130.058497,55.848592],[-130.058699,55.848375],[-130.058975,55.848078],[-130.059264,55.847767],[-130.059541,55.847469],[-130.059706,55.847291],[-130.059882,55.847102],[-130.060107,55.84686],[-130.060334,55.846616],[-130.060536,55.846399],[-130.060761,55.846157],[-130.060988,55.845912],[-130.061239,55.845642],[-130.061643,55.845208],[-130.061792,55.845048],[-130.061945,55.844884],[-130.062158,55.844655],[-130.062335,55.844465],[-130.062548,55.844235],[-130.062799,55.843965],[-130.063101,55.84364],[-130.06329,55.843437],[-130.06363,55.843071],[-130.063831,55.842855],[-130.064272,55.842381],[-130.064945,55.841657],[-130.068745,55.83757],[-130.070212,55.835992],[-130.074925,55.830923],[-130.083493,55.821707],[-130.088064,55.819928],[-130.107546,55.812344],[-130.124764,55.805642],[-130.127615,55.801578],[-130.130752,55.797104],[-130.131611,55.795883],[-130.136936,55.788295],[-130.142502,55.780361],[-130.145173,55.776555],[-130.151598,55.767437],[-130.152406,55.766287],[-130.151153,55.752434],[-130.150561,55.745887],[-130.148848,55.726952],[-130.147758,55.714903],[-130.146387,55.713688],[-130.137592,55.705891],[-130.130147,55.699292],[-130.121272,55.691424],[-130.118888,55.689311],[-130.111657,55.682901],[-130.111777,55.682148],[-130.112641,55.676733],[-130.114397,55.66572],[-130.118422,55.640488],[-130.12444,55.602755],[-130.127904,55.581035],[-130.120132,55.563919],[-130.111319,55.544726],[-130.101711,55.523802],[-130.095883,55.511111],[-130.092125,55.502926],[-130.091752,55.502115],[-130.089853,55.497978],[-130.0879,55.496121],[-130.087035,55.495298],[-130.084564,55.492949],[-130.055696,55.465496],[-130.041216,55.451725],[-130.037198,55.428982],[-130.03385,55.410035],[-130.032269,55.401086],[-130.031301,55.395608],[-130.028364,55.37899],[-130.027533,55.374287],[-130.02642,55.367987],[-130.021107,55.337916],[-130.015052,55.332803],[-130.009313,55.327956],[-130.004198,55.323636],[-129.991209,55.312667],[-129.976649,55.300371],[-129.97602,55.295697],[-129.975326,55.290536],[-129.974975,55.287927],[-129.974556,55.284814],[-129.974167,55.281919],[-129.978804,55.2787],[-129.982554,55.276097],[-129.984832,55.274516],[-129.99467,55.267687],[-129.99828,55.265181],[-130.006465,55.2595],[-130.010253,55.25687],[-130.016606,55.25246],[-130.027928,55.244602],[-130.041237,55.235364],[-130.06333,55.220028],[-130.070693,55.214917],[-130.079634,55.208711],[-130.080373,55.208198],[-130.098996,55.195272],[-130.102842,55.192602],[-130.110746,55.183515],[-130.117773,55.175437],[-130.130364,55.160877],[-130.13393,55.156862],[-130.143382,55.145995],[-130.145683,55.14335],[-130.146125,55.142842],[-130.149587,55.132833],[-130.15243,55.124616],[-130.154816,55.121819],[-130.157919,55.11818],[-130.159092,55.116805],[-130.164734,55.11019],[-130.16901,55.105176],[-130.180886,55.091251],[-130.182495,55.084402],[-130.183682,55.079351],[-130.186309,55.068175],[-130.187562,55.062841],[-130.192503,55.057722],[-130.2002,55.049745],[-130.202932,55.046914],[-130.213151,55.036324],[-130.221641,55.027526],[-130.22762,55.021293],[-130.235718,55.012938],[-130.24169,55.006749],[-130.24683,55.001423],[-130.255257,54.99269],[-130.259914,54.987865],[-130.266652,54.980882],[-130.273328,54.973964],[-130.290561,54.960617],[-130.302537,54.951342],[-130.30453,54.949798],[-130.31643,54.940582],[-130.340259,54.922126],[-130.344537,54.918813],[-130.350818,54.915162],[-130.382372,54.896822],[-130.409521,54.881042],[-130.413255,54.878872],[-130.422716,54.873373],[-130.459388,54.848465],[-130.474199,54.8408],[-130.49171,54.831738],[-130.514004,54.820201],[-130.568203,54.792153],[-130.59818,54.787491]]}}]}